{
  "type": "FeatureCollection",
  "features": [
    {
      "type": "Feature",
      "properties": {
        "district": "Adilabad"
      },
      "geometry": {
        "type": "Polygon",
        "coordinates": [
          [
            [
              78.3,
              19.7
            ],
            [
              79.3,
              19.7
            ],
            [
              79.3,
              18.9
            ],
            [
              78.3,
              18.9
            ],
            [
              78.3,
              19.7
            ]
          ]
        ]
      }
    },
    {
      "type": "Feature",
      "properties": {
        "district": "Kumurambheem Asifabad"
      },
      "geometry": {
        "type": "Polygon",
        "coordinates": [
          [
            [
              79.3,
              19.7
            ],
            [
              80.2,
              19.7
            ],
            [
              80.2,
              19.1
            ],
            [
              79.3,
              19.1
            ],
            [
              79.3,
              19.7
            ]
          ]
        ]
      }
    },
    {
      "type": "Feature",
      "properties": {
        "district": "Mancherial"
      },
      "geometry": {
        "type": "Polygon",
        "coordinates": [
          [
            [
              79.3,
              19.1
            ],
            [
              80.2,
              19.1
            ],
            [
              80.2,
              18.5
            ],
            [
              79.3,
              18.5
            ],
            [
              79.3,
              19.1
            ]
          ]
        ]
      }
    },
    {
      "type": "Feature",
      "properties": {
        "district": "Nirmal"
      },
      "geometry": {
        "type": "Polygon",
        "coordinates": [
          [
            [
              77.8,
              19.1
            ],
            [
              78.3,
              19.1
            ],
            [
              78.3,
              18.5
            ],
            [
              77.8,
              18.5
            ],
            [
              77.8,
              19.1
            ]
          ]
        ]
      }
    },
    {
      "type": "Feature",
      "properties": {
        "district": "Nizamabad"
      },
      "geometry": {
        "type": "Polygon",
        "coordinates": [
          [
            [
              77.5,
              18.8
            ],
            [
              78.2,
              18.8
            ],
            [
              78.2,
              18.1
            ],
            [
              77.5,
              18.1
            ],
            [
              77.5,
              18.8
            ]
          ]
        ]
      }
    },
    {
      "type": "Feature",
      "properties": {
        "district": "Jagtial"
      },
      "geometry": {
        "type": "Polygon",
        "coordinates": [
          [
            [
              78.9,
              18.8
            ],
            [
              79.4,
              18.8
            ],
            [
              79.4,
              18.2
            ],
            [
              78.9,
              18.2
            ],
            [
              78.9,
              18.8
            ]
          ]
        ]
      }
    },
    {
      "type": "Feature",
      "properties": {
        "district": "Peddapalli"
      },
      "geometry": {
        "type": "Polygon",
        "coordinates": [
          [
            [
              79.4,
              18.8
            ],
            [
              80.0,
              18.8
            ],
            [
              80.0,
              18.2
            ],
            [
              79.4,
              18.2
            ],
            [
              79.4,
              18.8
            ]
          ]
        ]
      }
    },
    {
      "type": "Feature",
      "properties": {
        "district": "Karimnagar"
      },
      "geometry": {
        "type": "Polygon",
        "coordinates": [
          [
            [
              78.9,
              18.5
            ],
            [
              79.4,
              18.5
            ],
            [
              79.4,
              18.0
            ],
            [
              78.9,
              18.0
            ],
            [
              78.9,
              18.5
            ]
          ]
        ]
      }
    },
    {
      "type": "Feature",
      "properties": {
        "district": "Rajanna Sircilla"
      },
      "geometry": {
        "type": "Polygon",
        "coordinates": [
          [
            [
              78.4,
              18.5
            ],
            [
              78.9,
              18.5
            ],
            [
              78.9,
              18.0
            ],
            [
              78.4,
              18.0
            ],
            [
              78.4,
              18.5
            ]
          ]
        ]
      }
    },
    {
      "type": "Feature",
      "properties": {
        "district": "Kamareddy"
      },
      "geometry": {
        "type": "Polygon",
        "coordinates": [
          [
            [
              77.5,
              18.3
            ],
            [
              78.4,
              18.3
            ],
            [
              78.4,
              17.8
            ],
            [
              77.5,
              17.8
            ],
            [
              77.5,
              18.3
            ]
          ]
        ]
      }
    },
    {
      "type": "Feature",
      "properties": {
        "district": "Mulugu"
      },
      "geometry": {
        "type": "Polygon",
        "coordinates": [
          [
            [
              79.8,
              18.2
            ],
            [
              80.5,
              18.2
            ],
            [
              80.5,
              17.7
            ],
            [
              79.8,
              17.7
            ],
            [
              79.8,
              18.2
            ]
          ]
        ]
      }
    },
    {
      "type": "Feature",
      "properties": {
        "district": "Jayashankar Bhupalpally"
      },
      "geometry": {
        "type": "Polygon",
        "coordinates": [
          [
            [
              79.4,
              18.2
            ],
            [
              79.8,
              18.2
            ],
            [
              79.8,
              17.7
            ],
            [
              79.4,
              17.7
            ],
            [
              79.4,
              18.2
            ]
          ]
        ]
      }
    },
    {
      "type": "Feature",
      "properties": {
        "district": "Medak"
      },
      "geometry": {
        "type": "Polygon",
        "coordinates": [
          [
            [
              77.8,
              18.1
            ],
            [
              78.4,
              18.1
            ],
            [
              78.4,
              17.6
            ],
            [
              77.8,
              17.6
            ],
            [
              77.8,
              18.1
            ]
          ]
        ]
      }
    },
    {
      "type": "Feature",
      "properties": {
        "district": "Siddipet"
      },
      "geometry": {
        "type": "Polygon",
        "coordinates": [
          [
            [
              78.4,
              18.1
            ],
            [
              79.0,
              18.1
            ],
            [
              79.0,
              17.6
            ],
            [
              78.4,
              17.6
            ],
            [
              78.4,
              18.1
            ]
          ]
        ]
      }
    },
    {
      "type": "Feature",
      "properties": {
        "district": "Jangaon"
      },
      "geometry": {
        "type": "Polygon",
        "coordinates": [
          [
            [
              79.0,
              18.0
            ],
            [
              79.4,
              18.0
            ],
            [
              79.4,
              17.5
            ],
            [
              79.0,
              17.5
            ],
            [
              79.0,
              18.0
            ]
          ]
        ]
      }
    },
    {
      "type": "Feature",
      "properties": {
        "district": "Hanamkonda"
      },
      "geometry": {
        "type": "Polygon",
        "coordinates": [
          [
            [
              79.4,
              18.0
            ],
            [
              79.8,
              18.0
            ],
            [
              79.8,
              17.6
            ],
            [
              79.4,
              17.6
            ],
            [
              79.4,
              18.0
            ]
          ]
        ]
      }
    },
    {
      "type": "Feature",
      "properties": {
        "district": "Mahabubabad"
      },
      "geometry": {
        "type": "Polygon",
        "coordinates": [
          [
            [
              79.8,
              17.9
            ],
            [
              80.5,
              17.9
            ],
            [
              80.5,
              17.3
            ],
            [
              79.8,
              17.3
            ],
            [
              79.8,
              17.9
            ]
          ]
        ]
      }
    },
    {
      "type": "Feature",
      "properties": {
        "district": "Bhadradri Kothagudem"
      },
      "geometry": {
        "type": "Polygon",
        "coordinates": [
          [
            [
              80.5,
              18.0
            ],
            [
              81.2,
              18.0
            ],
            [
              81.2,
              17.3
            ],
            [
              80.5,
              17.3
            ],
            [
              80.5,
              18.0
            ]
          ]
        ]
      }
    },
    {
      "type": "Feature",
      "properties": {
        "district": "Khammam"
      },
      "geometry": {
        "type": "Polygon",
        "coordinates": [
          [
            [
              80.0,
              17.4
            ],
            [
              80.7,
              17.4
            ],
            [
              80.7,
              16.9
            ],
            [
              80.0,
              16.9
            ],
            [
              80.0,
              17.4
            ]
          ]
        ]
      }
    },
    {
      "type": "Feature",
      "properties": {
        "district": "Rangareddy"
      },
      "geometry": {
        "type": "Polygon",
        "coordinates": [
          [
            [
              77.2,
              17.5
            ],
            [
              78.0,
              17.5
            ],
            [
              78.0,
              16.9
            ],
            [
              77.2,
              16.9
            ],
            [
              77.2,
              17.5
            ]
          ]
        ]
      }
    },
    {
      "type": "Feature",
      "properties": {
        "district": "Hyderabad"
      },
      "geometry": {
        "type": "Polygon",
        "coordinates": [
          [
            [
              78.2,
              17.5
            ],
            [
              78.6,
              17.5
            ],
            [
              78.6,
              17.2
            ],
            [
              78.2,
              17.2
            ],
            [
              78.2,
              17.5
            ]
          ]
        ]
      }
    },
    {
      "type": "Feature",
      "properties": {
        "district": "Medchal Malkajgiri"
      },
      "geometry": {
        "type": "Polygon",
        "coordinates": [
          [
            [
              78.4,
              17.6
            ],
            [
              78.9,
              17.6
            ],
            [
              78.9,
              17.2
            ],
            [
              78.4,
              17.2
            ],
            [
              78.4,
              17.6
            ]
          ]
        ]
      }
    },
    {
      "type": "Feature",
      "properties": {
        "district": "Yadadri Bhongir"
      },
      "geometry": {
        "type": "Polygon",
        "coordinates": [
          [
            [
              78.8,
              17.6
            ],
            [
              79.3,
              17.6
            ],
            [
              79.3,
              17.1
            ],
            [
              78.8,
              17.1
            ],
            [
              78.8,
              17.6
            ]
          ]
        ]
      }
    },
    {
      "type": "Feature",
      "properties": {
        "district": "Suryapet"
      },
      "geometry": {
        "type": "Polygon",
        "coordinates": [
          [
            [
              79.3,
              17.4
            ],
            [
              80.0,
              17.4
            ],
            [
              80.0,
              16.9
            ],
            [
              79.3,
              16.9
            ],
            [
              79.3,
              17.4
            ]
          ]
        ]
      }
    },
    {
      "type": "Feature",
      "properties": {
        "district": "Nalgonda"
      },
      "geometry": {
        "type": "Polygon",
        "coordinates": [
          [
            [
              78.8,
              17.2
            ],
            [
              79.3,
              17.2
            ],
            [
              79.3,
              16.7
            ],
            [
              78.8,
              16.7
            ],
            [
              78.8,
              17.2
            ]
          ]
        ]
      }
    },
    {
      "type": "Feature",
      "properties": {
        "district": "Mahabubnagar"
      },
      "geometry": {
        "type": "Polygon",
        "coordinates": [
          [
            [
              77.5,
              16.9
            ],
            [
              78.2,
              16.9
            ],
            [
              78.2,
              16.3
            ],
            [
              77.5,
              16.3
            ],
            [
              77.5,
              16.9
            ]
          ]
        ]
      }
    },
    {
      "type": "Feature",
      "properties": {
        "district": "Narayanpet"
      },
      "geometry": {
        "type": "Polygon",
        "coordinates": [
          [
            [
              76.9,
              16.7
            ],
            [
              77.5,
              16.7
            ],
            [
              77.5,
              16.2
            ],
            [
              76.9,
              16.2
            ],
            [
              76.9,
              16.7
            ]
          ]
        ]
      }
    },
    {
      "type": "Feature",
      "properties": {
        "district": "Jogulamba Gadwal"
      },
      "geometry": {
        "type": "Polygon",
        "coordinates": [
          [
            [
              77.5,
              16.3
            ],
            [
              78.0,
              16.3
            ],
            [
              78.0,
              15.8
            ],
            [
              77.5,
              15.8
            ],
            [
              77.5,
              16.3
            ]
          ]
        ]
      }
    },
    {
      "type": "Feature",
      "properties": {
        "district": "Wanaparthy"
      },
      "geometry": {
        "type": "Polygon",
        "coordinates": [
          [
            [
              78.0,
              16.5
            ],
            [
              78.4,
              16.5
            ],
            [
              78.4,
              16.0
            ],
            [
              78.0,
              16.0
            ],
            [
              78.0,
              16.5
            ]
          ]
        ]
      }
    },
    {
      "type": "Feature",
      "properties": {
        "district": "Nagarkurnool"
      },
      "geometry": {
        "type": "Polygon",
        "coordinates": [
          [
            [
              78.0,
              17.0
            ],
            [
              78.5,
              17.0
            ],
            [
              78.5,
              16.4
            ],
            [
              78.0,
              16.4
            ],
            [
              78.0,
              17.0
            ]
          ]
        ]
      }
    },
    {
      "type": "Feature",
      "properties": {
        "district": "Vikarabad"
      },
      "geometry": {
        "type": "Polygon",
        "coordinates": [
          [
            [
              77.2,
              17.4
            ],
            [
              77.8,
              17.4
            ],
            [
              77.8,
              16.9
            ],
            [
              77.2,
              16.9
            ],
            [
              77.2,
              17.4
            ]
          ]
        ]
      }
    },
    {
      "type": "Feature",
      "properties": {
        "district": "Sangareddy"
      },
      "geometry": {
        "type": "Polygon",
        "coordinates": [
          [
            [
              77.5,
              17.8
            ],
            [
              78.2,
              17.8
            ],
            [
              78.2,
              17.4
            ],
            [
              77.5,
              17.4
            ],
            [
              77.5,
              17.8
            ]
          ]
        ]
      }
    }
  ]
}